start=new Date('2021-10-10T00:00:00.000Z').valueOf();
sats=[{"NORAD_CAT_ID":"45231","TLE_LINE2":"2 45231  53.0343 354.0203 0006722 340.6392  19.4369 15.73214346 92993","REF_FRAME":"TEME","MEAN_MOTION_DOT":"0.00008027","CLASSIFICATION_TYPE":"U","CENTER_NAME":"EARTH","MEAN_ANOMALY":"19.4369","MEAN_MOTION_DDOT":"0.0000000000000","ARG_OF_PERICENTER":"340.6392","LAUNCH_DATE":"2020-02-17","ECCENTRICITY":"0.00067220","OBJECT_NAME":"STARLINK-1229","DECAY_DATE":null,"PERIAPSIS":"345.197","REV_AT_EPOCH":"9299","FILE":"3153808","GP_ID":"186726564","SITE":"AFETR","RCS_SIZE":"LARGE","OBJECT_ID":"2020-012BF","INCLINATION":"53.0343","APOAPSIS":"354.242","MEAN_ELEMENT_THEORY":"SGP4","COUNTRY_CODE":"US","SEMIMAJOR_AXIS":"6727.854","TLE_LINE1":"1 45231U 20012BF  21282.66615551  .00008027  00000-0  61498-4 0  9999","BSTAR":"0.00006149800000","RA_OF_ASC_NODE":"354.0203","ELEMENT_SET_NO":"999","OBJECT_TYPE":"PAYLOAD","EPHEMERIS_TYPE":"0","PERIOD":"91.532","MEAN_MOTION":"15.73214346","EPOCH":"2021-10-09T15:59:15.836064","TIME_SYSTEM":"UTC"},{"OBJECT_NAME":"STARLINK-1235","ECCENTRICITY":"0.00015120","DECAY_DATE":null,"LAUNCH_DATE":"2020-02-17","FILE":"3153808","PERIAPSIS":"546.169","REV_AT_EPOCH":"9243","CLASSIFICATION_TYPE":"U","REF_FRAME":"TEME","TLE_LINE2":"2 45232  53.0545  43.2259 0001512  96.6492 263.4669 15.06399316 92437","NORAD_CAT_ID":"45232","MEAN_MOTION_DOT":"-0.00000146","ARG_OF_PERICENTER":"96.6492","CENTER_NAME":"EARTH","MEAN_ANOMALY":"263.4669","MEAN_MOTION_DDOT":"0.0000000000000","ELEMENT_SET_NO":"999","EPHEMERIS_TYPE":"0","OBJECT_TYPE":"PAYLOAD","RA_OF_ASC_NODE":"43.2259","EPOCH":"2021-10-09T16:13:25.054752","TIME_SYSTEM":"UTC","PERIOD":"95.592","MEAN_MOTION":"15.06399316","APOAPSIS":"548.263","GP_ID":"186726820","OBJECT_ID":"2020-012BG","RCS_SIZE":"LARGE","INCLINATION":"53.0545","SITE":"AFETR","BSTAR":"0.00000907530000","TLE_LINE1":"1 45232U 20012BG  21282.67598443 -.00000146  00000-0  90753-5 0  9993","SEMIMAJOR_AXIS":"6925.351","COUNTRY_CODE":"US","MEAN_ELEMENT_THEORY":"SGP4"},{"MEAN_MOTION_DOT":"0.00002995","REF_FRAME":"TEME","TLE_LINE2":"2 45233  53.0558  62.7124 0001769  93.8243 266.2948 15.06406537 92150","NORAD_CAT_ID":"45233","CLASSIFICATION_TYPE":"U","MEAN_MOTION_DDOT":"0.0000000000000","CENTER_NAME":"EARTH","MEAN_ANOMALY":"266.2948","ARG_OF_PERICENTER":"93.8243","LAUNCH_DATE":"2020-02-17","DECAY_DATE":null,"ECCENTRICITY":"0.00017690","OBJECT_NAME":"STARLINK-1238","REV_AT_EPOCH":"9215","PERIAPSIS":"545.968","FILE":"3153808","OBJECT_ID":"2020-012BH","RCS_SIZE":"LARGE","INCLINATION":"53.0558","SITE":"AFETR","GP_ID":"186727567","APOAPSIS":"548.419","COUNTRY_CODE":"US","MEAN_ELEMENT_THEORY":"SGP4","TLE_LINE1":"1 45233U 20012BH  21282.78840568  .00002995  00000-0  21985-3 0  9996","BSTAR":"0.00021985000000","SEMIMAJOR_AXIS":"6925.329","RA_OF_ASC_NODE":"62.7124","EPHEMERIS_TYPE":"0","OBJECT_TYPE":"PAYLOAD","ELEMENT_SET_NO":"999","MEAN_MOTION":"15.06406537","PERIOD":"95.592","TIME_SYSTEM":"UTC","EPOCH":"2021-10-09T18:55:18.250752"},{"COUNTRY_CODE":"US","MEAN_ELEMENT_THEORY":"SGP4","TLE_LINE1":"1 45234U 20012BJ  21282.76076176 -.00000901  00000-0 -41588-4 0  9990","BSTAR":"-0.00004158800000","SEMIMAJOR_AXIS":"6925.357","OBJECT_ID":"2020-012BJ","RCS_SIZE":"LARGE","INCLINATION":"53.0525","SITE":"AFETR","GP_ID":"186725820","APOAPSIS":"548.225","MEAN_MOTION":"15.06397329","PERIOD":"95.592","TIME_SYSTEM":"UTC","EPOCH":"2021-10-09T18:15:29.816064","RA_OF_ASC_NODE":"82.8501","OBJECT_TYPE":"PAYLOAD","EPHEMERIS_TYPE":"0","ELEMENT_SET_NO":"999","MEAN_MOTION_DDOT":"0.0000000000000","MEAN_ANOMALY":"269.8484","CENTER_NAME":"EARTH","ARG_OF_PERICENTER":"90.2671","MEAN_MOTION_DOT":"-0.00000901","REF_FRAME":"TEME","NORAD_CAT_ID":"45234","TLE_LINE2":"2 45234  53.0525  82.8501 0001448  90.2671 269.8484 15.06397329 91855","CLASSIFICATION_TYPE":"U","REV_AT_EPOCH":"9185","PERIAPSIS":"546.219","FILE":"3153808","LAUNCH_DATE":"2020-02-17","DECAY_DATE":null,"ECCENTRICITY":"0.00014480","OBJECT_NAME":"STARLINK-1243"},{"REF_FRAME":"TEME","NORAD_CAT_ID":"45235","TLE_LINE2":"2 45235  53.0554  82.9202 0002077  93.2089 266.9138 15.06395875 91906","MEAN_MOTION_DOT":"0.00001507","CLASSIFICATION_TYPE":"U","MEAN_ANOMALY":"266.9138","CENTER_NAME":"EARTH","MEAN_MOTION_DDOT":"0.0000000000000","ARG_OF_PERICENTER":"93.2089","LAUNCH_DATE":"2020-02-17","OBJECT_NAME":"STARLINK-1246","ECCENTRICITY":"0.00020770","DECAY_DATE":null,"PERIAPSIS":"545.788","REV_AT_EPOCH":"9190","FILE":"3153808","GP_ID":"186726065","RCS_SIZE":"LARGE","INCLINATION":"53.0554","OBJECT_ID":"2020-012BK","SITE":"AFETR","APOAPSIS":"548.665","COUNTRY_CODE":"US","MEAN_ELEMENT_THEORY":"SGP4","TLE_LINE1":"1 45235U 20012BK  21282.74601291  .00001507  00000-0  12006-3 0  9994","BSTAR":"0.00012006000000","SEMIMAJOR_AXIS":"6925.361","RA_OF_ASC_NODE":"82.9202","ELEMENT_SET_NO":"999","EPHEMERIS_TYPE":"0","OBJECT_TYPE":"PAYLOAD","MEAN_MOTION":"15.06395875","PERIOD":"95.592","EPOCH":"2021-10-09T17:54:15.515424","TIME_SYSTEM":"UTC"},{"TLE_LINE1":"1 45236U 20012BL  21282.72758718  .00000034  00000-0  21189-4 0  9997","BSTAR":"0.00002118900000","SEMIMAJOR_AXIS":"6925.365","COUNTRY_CODE":"US","MEAN_ELEMENT_THEORY":"SGP4","APOAPSIS":"548.117","OBJECT_ID":"2020-012BL","RCS_SIZE":"LARGE","INCLINATION":"53.0549","SITE":"AFETR","GP_ID":"186727320","TIME_SYSTEM":"UTC","EPOCH":"2021-10-09T17:27:43.532352","MEAN_MOTION":"15.06394531","PERIOD":"95.592","EPHEMERIS_TYPE":"0","OBJECT_TYPE":"PAYLOAD","ELEMENT_SET_NO":"999","RA_OF_ASC_NODE":"43.0035","ARG_OF_PERICENTER":"103.6964","MEAN_MOTION_DDOT":"0.0000000000000","CENTER_NAME":"EARTH","MEAN_ANOMALY":"256.4168","CLASSIFICATION_TYPE":"U","MEAN_MOTION_DOT":"0.00000034","REF_FRAME":"TEME","TLE_LINE2":"2 45236  53.0549  43.0035 0001281 103.6964 256.4168 15.06394531 92431","NORAD_CAT_ID":"45236","FILE":"3153808","REV_AT_EPOCH":"9243","PERIAPSIS":"546.343","DECAY_DATE":null,"ECCENTRICITY":"0.00012810","OBJECT_NAME":"STARLINK-1247","LAUNCH_DATE":"2020-02-17"},{"LAUNCH_DATE":"2020-02-17","ECCENTRICITY":"0.00016060","OBJECT_NAME":"STARLINK-1270","DECAY_DATE":null,"PERIAPSIS":"546.079","REV_AT_EPOCH":"9242","FILE":"3153808","TLE_LINE2":"2 45237  53.0561  43.5023 0001606 106.3012 253.8154 15.06407295 92420","NORAD_CAT_ID":"45237","REF_FRAME":"TEME","MEAN_MOTION_DOT":"0.00000136","CLASSIFICATION_TYPE":"U","CENTER_NAME":"EARTH","MEAN_ANOMALY":"253.8154","MEAN_MOTION_DDOT":"0.0000000000000","ARG_OF_PERICENTER":"106.3012","RA_OF_ASC_NODE":"43.5023","ELEMENT_SET_NO":"999","OBJECT_TYPE":"PAYLOAD","EPHEMERIS_TYPE":"0","MEAN_MOTION":"15.06407295","PERIOD":"95.592","EPOCH":"2021-10-09T14:48:28.799136","TIME_SYSTEM":"UTC","GP_ID":"186727068","SITE":"AFETR","RCS_SIZE":"LARGE","INCLINATION":"53.0561","OBJECT_ID":"2020-012BM","APOAPSIS":"548.303","MEAN_ELEMENT_THEORY":"SGP4","COUNTRY_CODE":"US","SEMIMAJOR_AXIS":"6925.326","TLE_LINE1":"1 45237U 20012BM  21282.61699999  .00000136  00000-0  28007-4 0  9990","BSTAR":"0.00002800700000"},{"MEAN_MOTION_DOT":"-0.00000182","NORAD_CAT_ID":"45360","TLE_LINE2":"2 45360  53.0543 173.0852 0001753  79.4905 280.6281 15.06401914 87177","REF_FRAME":"TEME","CLASSIFICATION_TYPE":"U","MEAN_MOTION_DDOT":"0.0000000000000","CENTER_NAME":"EARTH","MEAN_ANOMALY":"280.6281","ARG_OF_PERICENTER":"79.4905","LAUNCH_DATE":"2020-03-18","DECAY_DATE":null,"ECCENTRICITY":"0.00017530","OBJECT_NAME":"STARLINK-1279","REV_AT_EPOCH":"8717","PERIAPSIS":"545.994","FILE":"3153808","SITE":"AFETR","INCLINATION":"53.0543","RCS_SIZE":"LARGE","OBJECT_ID":"2020-019A","GP_ID":"186727334","APOAPSIS":"548.422","MEAN_ELEMENT_THEORY":"SGP4","COUNTRY_CODE":"US","SEMIMAJOR_AXIS":"6925.343","TLE_LINE1":"1 45360U 20019A   21282.70824349 -.00000182  00000-0  66739-5 0  9990","BSTAR":"0.00000667390000","RA_OF_ASC_NODE":"173.0852","OBJECT_TYPE":"PAYLOAD","EPHEMERIS_TYPE":"0","ELEMENT_SET_NO":"999","MEAN_MOTION":"15.06401914","PERIOD":"95.592","TIME_SYSTEM":"UTC","EPOCH":"2021-10-09T16:59:52.237536"},{"LAUNCH_DATE":"2020-03-18","DECAY_DATE":null,"ECCENTRICITY":"0.00013490","OBJECT_NAME":"STARLINK-1301","REV_AT_EPOCH":"8705","PERIAPSIS":"546.392","FILE":"3153808","MEAN_MOTION_DOT":"0.00000260","REF_FRAME":"TEME","TLE_LINE2":"2 45361  53.0542 182.8418 0001349  81.9171 278.1971 15.06363303 87051","NORAD_CAT_ID":"45361","CLASSIFICATION_TYPE":"U","MEAN_MOTION_DDOT":"0.0000000000000","CENTER_NAME":"EARTH","MEAN_ANOMALY":"278.1971","ARG_OF_PERICENTER":"81.9171","RA_OF_ASC_NODE":"182.8418","EPHEMERIS_TYPE":"0","OBJECT_TYPE":"PAYLOAD","ELEMENT_SET_NO":"999","MEAN_MOTION":"15.06363303","PERIOD":"95.594","TIME_SYSTEM":"UTC","EPOCH":"2021-10-09T18:18:09.472032","INCLINATION":"53.0542","RCS_SIZE":"LARGE","OBJECT_ID":"2020-019B","SITE":"AFETR","GP_ID":"186727082","APOAPSIS":"548.260","COUNTRY_CODE":"US","MEAN_ELEMENT_THEORY":"SGP4","TLE_LINE1":"1 45361U 20019B   21282.76260963  .00000260  00000-0  36386-4 0  9993","BSTAR":"0.00003638600000","SEMIMAJOR_AXIS":"6925.461"},{"FILE":"3153808","REV_AT_EPOCH":"8677","PERIAPSIS":"546.021","DECAY_DATE":null,"ECCENTRICITY":"0.00017350","OBJECT_NAME":"STARLINK-1306","LAUNCH_DATE":"2020-03-18","ARG_OF_PERICENTER":"75.5630","MEAN_MOTION_DDOT":"0.0000000000000","MEAN_ANOMALY":"284.5552","CENTER_NAME":"EARTH","CLASSIFICATION_TYPE":"U","MEAN_MOTION_DOT":"-0.00001369","NORAD_CAT_ID":"45362","TLE_LINE2":"2 45362  53.0544 202.6356 0001735  75.5630 284.5552 15.06397105 86775","REF_FRAME":"TEME","TIME_SYSTEM":"UTC","EPOCH":"2021-10-09T19:24:29.932992","MEAN_MOTION":"15.06397105","PERIOD":"95.592","EPHEMERIS_TYPE":"0","OBJECT_TYPE":"PAYLOAD","ELEMENT_SET_NO":"999","RA_OF_ASC_NODE":"202.6356","SEMIMAJOR_AXIS":"6925.357","BSTAR":"-0.00007300200000","TLE_LINE1":"1 45362U 20019C   21282.80867978 -.00001369  00000-0 -73002-4 0  9997","MEAN_ELEMENT_THEORY":"SGP4","COUNTRY_CODE":"US","APOAPSIS":"548.424","SITE":"AFETR","OBJECT_ID":"2020-019C","RCS_SIZE":"LARGE","INCLINATION":"53.0544","GP_ID":"186726334"}];
